[{"EPOCH_MICROSECONDS": "55072", "BSTAR": "0", "CLASSIFICATION_TYPE": "U", "ARG_OF_PERICENTER": "57.7226", "FILE": "33905", "ECCENTRICITY": "0.0254534", "TLE_LINE0": "0 EXPLORER 4", "ELEMENT_SET_NO": "97", "COMMENT": "GENERATED VIA SPACETRACK.ORG API", "MEAN_MOTION_DDOT": "0", "RA_OF_ASC_NODE": "82.4216", "OBJECT_ID": "1958-005A", "EPHEMERIS_TYPE": "0", "OBJECT_NAME": "EXPLORER 4", "ORIGINATOR": "JSPOC", "TLE_LINE2": "2 00009 050.2549 082.4216 0254534 057.7226 303.5234 15.51612549060703", "TLE_LINE1": "1 00009U 58005  A 59275.28696823  .00892850 +00000-0 +00000-0 0 00970", "OBJECT_TYPE": "PAYLOAD", "MEAN_MOTION": "15.51612549", "INTLDES": "58005A", "MEAN_ANOMALY": "303.5234", "EPOCH": "1959-10-02 06:53:14", "MEAN_MOTION_DOT": "0.0089285", "NORAD_CAT_ID": "9", "INCLINATION": "50.2549", "ORDINAL": "1", "REV_AT_EPOCH": "6070", "OBJECT_NUMBER": "9"}, {"EPOCH_MICROSECONDS": "902816", "BSTAR": "0", "CLASSIFICATION_TYPE": "U", "ARG_OF_PERICENTER": "47.2577", "FILE": "33905", "ECCENTRICITY": "0.7601812", "TLE_LINE0": "0 EXPLORER 6", "ELEMENT_SET_NO": "10", "COMMENT": "GENERATED VIA SPACETRACK.ORG API", "MEAN_MOTION_DDOT": "0", "RA_OF_ASC_NODE": "49.6823", "OBJECT_ID": "1959-004A", "EPHEMERIS_TYPE": "0", "OBJECT_NAME": "EXPLORER 6", "ORIGINATOR": "JSPOC", "TLE_LINE2": "2 00015 046.9509 049.6823 7601812 047.2577 341.8928 01.88913924001001", "TLE_LINE1": "1 00015U 59004  A 59272.62543869  .00008106 +00000-0 +00000-0 0 00101", "OBJECT_TYPE": "PAYLOAD", "MEAN_MOTION": "1.88913924", "INTLDES": "59004A", "MEAN_ANOMALY": "341.8928", "EPOCH": "1959-09-29 15:00:37", "MEAN_MOTION_DOT": "8.106e-05", "NORAD_CAT_ID": "15", "INCLINATION": "46.9509", "ORDINAL": "1", "REV_AT_EPOCH": "100", "OBJECT_NUMBER": "15"}, {"EPOCH_MICROSECONDS": "948799", "BSTAR": "0", "CLASSIFICATION_TYPE": "U", "ARG_OF_PERICENTER": "12.7649", "FILE": "33905", "ECCENTRICITY": "0.0140209", "TLE_LINE0": "0 DISCOVERER 5", "ELEMENT_SET_NO": "14", "COMMENT": "GENERATED VIA SPACETRACK.ORG API", "MEAN_MOTION_DDOT": "0", "RA_OF_ASC_NODE": "251.4819", "OBJECT_ID": "1959-005A", "EPHEMERIS_TYPE": "0", "OBJECT_NAME": "DISCOVERER 5", "ORIGINATOR": "JSPOC", "TLE_LINE2": "2 00018 079.9899 251.4819 0140209 012.7649 347.4143 16.16111033006800", "TLE_LINE1": "1 00018U 59005  A 59269.32477950  .04655228 +00000-0 +00000-0 0 00146", "OBJECT_TYPE": "PAYLOAD", "MEAN_MOTION": "16.16111033", "INTLDES": "59005A", "MEAN_ANOMALY": "347.4143", "EPOCH": "1959-09-26 07:47:40", "MEAN_MOTION_DOT": "0.04655228", "NORAD_CAT_ID": "18", "INCLINATION": "79.9899", "ORDINAL": "1", "REV_AT_EPOCH": "680", "OBJECT_NUMBER": "18"}, {"EPOCH_MICROSECONDS": "768255", "BSTAR": "0", "CLASSIFICATION_TYPE": "U", "ARG_OF_PERICENTER": "326.3932", "FILE": "33905", "ECCENTRICITY": "0.0222212", "TLE_LINE0": "0 DISCOVERER 6", "ELEMENT_SET_NO": "12", "COMMENT": "GENERATED VIA SPACETRACK.ORG API", "MEAN_MOTION_DDOT": "0", "RA_OF_ASC_NODE": "286.5094", "OBJECT_ID": "1959-006A", "EPHEMERIS_TYPE": "0", "OBJECT_NAME": "DISCOVERER 6", "ORIGINATOR": "JSPOC", "TLE_LINE2": "2 00019 083.9999 286.5094 0222212 326.3932 034.3056 15.83731828007208", "TLE_LINE1": "1 00019U 59006  A 59278.50940704  .01114833 +00000-0 +00000-0 0 00127", "OBJECT_TYPE": "PAYLOAD", "MEAN_MOTION": "15.83731828", "INTLDES": "59006A", "MEAN_ANOMALY": "34.3056", "EPOCH": "1959-10-05 12:13:32", "MEAN_MOTION_DOT": "0.01114833", "NORAD_CAT_ID": "19", "INCLINATION": "83.9999", "ORDINAL": "1", "REV_AT_EPOCH": "720", "OBJECT_NUMBER": "19"}, {"EPOCH_MICROSECONDS": "7136", "BSTAR": "0", "CLASSIFICATION_TYPE": "U", "ARG_OF_PERICENTER": "119.5599", "FILE": "33905", "ECCENTRICITY": "0.0281", "TLE_LINE0": "0 DISCOVERER 7", "ELEMENT_SET_NO": "9", "COMMENT": "GENERATED VIA SPACETRACK.ORG API", "MEAN_MOTION_DDOT": "0", "RA_OF_ASC_NODE": "44.7879", "OBJECT_ID": "1959-010A", "EPHEMERIS_TYPE": "0", "OBJECT_NAME": "DISCOVERER 7", "ORIGINATOR": "JSPOC", "TLE_LINE2": "2 00024 081.6399 044.7879 0281000 119.5599 241.8752 15.73099002002000", "TLE_LINE1": "1 00024U 59010  A 59324.76896999  .03159051 +00000-0 +00000-0 0 00093", "OBJECT_TYPE": "PAYLOAD", "MEAN_MOTION": "15.73099002", "INTLDES": "59010A", "MEAN_ANOMALY": "241.8752", "EPOCH": "1959-11-20 18:27:19", "MEAN_MOTION_DOT": "0.03159051", "NORAD_CAT_ID": "24", "INCLINATION": "81.6399", "ORDINAL": "1", "REV_AT_EPOCH": "200", "OBJECT_NUMBER": "24"}, {"EPOCH_MICROSECONDS": "296607", "BSTAR": "0", "CLASSIFICATION_TYPE": "U", "ARG_OF_PERICENTER": "170.3363", "FILE": "33906", "ECCENTRICITY": "0.0094843", "TLE_LINE0": "0 DISCOVERER 8", "ELEMENT_SET_NO": "34", "COMMENT": "GENERATED VIA SPACETRACK.ORG API", "MEAN_MOTION_DDOT": "0", "RA_OF_ASC_NODE": "290.2565", "OBJECT_ID": "1959-011A", "EPHEMERIS_TYPE": "0", "OBJECT_NAME": "DISCOVERER 8", "ORIGINATOR": "JSPOC", "TLE_LINE2": "2 00025 080.6499 290.2565 0094843 170.3363 189.7568 16.35855842015945", "TLE_LINE1": "1 00025U 59011  A 60067.96672797  .09310919 +00000-0 +00000-0 0 00347", "OBJECT_TYPE": "PAYLOAD", "MEAN_MOTION": "16.35855842", "INTLDES": "59011A", "MEAN_ANOMALY": "189.7568", "EPOCH": "1960-03-07 23:12:05", "MEAN_MOTION_DOT": "0.09310919", "NORAD_CAT_ID": "25", "INCLINATION": "80.6499", "ORDINAL": "1", "REV_AT_EPOCH": "1594", "OBJECT_NUMBER": "25"}, {"EPOCH_MICROSECONDS": "423839", "BSTAR": "0", "CLASSIFICATION_TYPE": "U", "ARG_OF_PERICENTER": "73.2921", "FILE": "33907", "ECCENTRICITY": "0.0103758", "TLE_LINE0": "0 DISCOVERER 5 CAPSULE", "ELEMENT_SET_NO": "70", "COMMENT": "GENERATED VIA SPACETRACK.ORG API", "MEAN_MOTION_DDOT": "0", "RA_OF_ASC_NODE": "321.1425", "OBJECT_ID": "1959-005B", "EPHEMERIS_TYPE": "0", "OBJECT_NAME": "DISCOVERER 5 CAPSULE", "ORIGINATOR": "JSPOC", "TLE_LINE2": "2 00026 078.9399 321.1425 0103758 073.2921 287.2863 16.22923515052909", "TLE_LINE1": "1 00026U 59005  B 61041.29007435  .03920686 +00000-0 +00000-0 0 00703", "OBJECT_TYPE": "PAYLOAD", "MEAN_MOTION": "16.22923515", "INTLDES": "59005B", "MEAN_ANOMALY": "287.2863", "EPOCH": "1961-02-10 06:57:42", "MEAN_MOTION_DOT": "0.03920686", "NORAD_CAT_ID": "26", "INCLINATION": "78.9399", "ORDINAL": "1", "REV_AT_EPOCH": "5290", "OBJECT_NUMBER": "26"}, {"EPOCH_MICROSECONDS": "774496", "BSTAR": "0", "CLASSIFICATION_TYPE": "U", "ARG_OF_PERICENTER": "331.9473", "FILE": "33907", "ECCENTRICITY": "0", "TLE_LINE0": "0 THOR ABLESTAR R/B", "ELEMENT_SET_NO": "95", "COMMENT": "GENERATED VIA SPACETRACK.ORG API", "MEAN_MOTION_DDOT": "0", "RA_OF_ASC_NODE": "356.4892", "OBJECT_ID": "1960-003A", "EPHEMERIS_TYPE": "0", "OBJECT_NAME": "THOR ABLESTAR R/B", "ORIGINATOR": "JSPOC", "TLE_LINE2": "2 00030 051.2500 356.4892 0000000 331.9473 028.0526 16.29358349075909", "TLE_LINE1": "1 00030U 60003  A 61228.60062239  .02125614 +00000-0 +00000-0 0 00957", "OBJECT_TYPE": "ROCKET BODY", "MEAN_MOTION": "16.29358349", "INTLDES": "60003A", "MEAN_ANOMALY": "28.0526", "EPOCH": "1961-08-16 14:24:53", "MEAN_MOTION_DOT": "0.02125614", "NORAD_CAT_ID": "30", "INCLINATION": "51.25", "ORDINAL": "1", "REV_AT_EPOCH": "7590", "OBJECT_NUMBER": "30"}, {"EPOCH_MICROSECONDS": "114815", "BSTAR": "0", "CLASSIFICATION_TYPE": "U", "ARG_OF_PERICENTER": "349.5805", "FILE": "33915", "ECCENTRICITY": "0.0014942", "TLE_LINE0": "0 TRANSIT 1B", "ELEMENT_SET_NO": "387", "COMMENT": "GENERATED VIA SPACETRACK.ORG API", "MEAN_MOTION_DDOT": "0", "RA_OF_ASC_NODE": "317.7772", "OBJECT_ID": "1960-003B", "EPHEMERIS_TYPE": "0", "OBJECT_NAME": "TRANSIT 1B", "ORIGINATOR": "JSPOC", "TLE_LINE2": "2 00031 051.2007 317.7772 0014942 349.5805 010.4801 16.23394966418285", "TLE_LINE1": "1 00031U 60003  B 67275.67017494  .01669365 +00000-0 +00000-0 0 03875", "OBJECT_TYPE": "PAYLOAD", "MEAN_MOTION": "16.23394966", "INTLDES": "60003B", "MEAN_ANOMALY": "10.4801", "EPOCH": "1967-10-02 16:05:03", "MEAN_MOTION_DOT": "0.01669365", "NORAD_CAT_ID": "31", "INCLINATION": "51.2007", "ORDINAL": "1", "REV_AT_EPOCH": "41828", "OBJECT_NUMBER": "31"}, {"EPOCH_MICROSECONDS": "658112", "BSTAR": "0", "CLASSIFICATION_TYPE": "U", "ARG_OF_PERICENTER": "121.6216", "FILE": "33906", "ECCENTRICITY": "0.017693", "TLE_LINE0": "0 DISCOVERER 11", "ELEMENT_SET_NO": "6", "COMMENT": "GENERATED VIA SPACETRACK.ORG API", "MEAN_MOTION_DDOT": "0", "RA_OF_ASC_NODE": "205.8192", "OBJECT_ID": "1960-004A", "EPHEMERIS_TYPE": "0", "OBJECT_NAME": "DISCOVERER 11", "ORIGINATOR": "JSPOC", "TLE_LINE2": "2 00032 080.0999 205.8192 0176930 121.6216 239.2608 16.05408684001401", "TLE_LINE1": "1 00032U 60004  A 60115.70328308  .04582881 +00000-0 +00000-0 0 00064", "OBJECT_TYPE": "PAYLOAD", "MEAN_MOTION": "16.05408684", "INTLDES": "60004A", "MEAN_ANOMALY": "239.2608", "EPOCH": "1960-04-24 16:52:43", "MEAN_MOTION_DOT": "0.04582881", "NORAD_CAT_ID": "32", "INCLINATION": "80.0999", "ORDINAL": "1", "REV_AT_EPOCH": "140", "OBJECT_NUMBER": "32"}, {"EPOCH_MICROSECONDS": "496512", "BSTAR": "0", "CLASSIFICATION_TYPE": "U", "ARG_OF_PERICENTER": "196.78", "FILE": "33906", "ECCENTRICITY": "0.0242757", "TLE_LINE0": "0 THOR ABLESTAR DEB", "ELEMENT_SET_NO": "26", "COMMENT": "GENERATED VIA SPACETRACK.ORG API", "MEAN_MOTION_DDOT": "0", "RA_OF_ASC_NODE": "136.0668", "OBJECT_ID": "1960-003C", "EPHEMERIS_TYPE": "0", "OBJECT_NAME": "THOR ABLESTAR DEB", "ORIGINATOR": "JSPOC", "TLE_LINE2": "2 00033 051.2879 136.0668 0242757 196.7800 163.6100 15.38343354027003", "TLE_LINE1": "1 00033U 60003  C 60280.33271408  .00001932 +00000-0 +00000-0 0 00265", "OBJECT_TYPE": "DEBRIS", "MEAN_MOTION": "15.38343354", "INTLDES": "60003C", "MEAN_ANOMALY": "163.61", "EPOCH": "1960-10-06 07:59:06", "MEAN_MOTION_DOT": "1.932e-05", "NORAD_CAT_ID": "33", "INCLINATION": "51.2879", "ORDINAL": "1", "REV_AT_EPOCH": "2700", "OBJECT_NUMBER": "33"}]